STARLINK-3852           
1 52345U 22045Q   26068.67518447  .00000880  00000+0  73364-4 0  9998
2 52345  53.2166 199.3501 0001303  90.9929 269.1213 15.08837906215769
DISKSAT A               
1 67222U 25305D   26068.54789610  .00013824  00000+0  90452-3 0  9996
2 67222  45.0023 251.6019 0004082 318.1929  41.8634 15.07741062 12266
